STARLINK-5300           
1 55676U 23021BA  23330.00001157 -.00029488  00000+0 -24743-2 0  9996
2 55676  70.0016  89.1877 0002982 275.7734 118.2796 14.98325292 44446
STARLINK-5324           
1 55677U 23021BB  23330.00001157 -.00026465  00000+0 -22186-2 0  9998
2 55677  70.0018  88.9880 0003630 271.9761 302.1537 14.98327229 44459
STARLINK-5314           
1 55678U 23021BC  23329.83100774 -.00009712  00000+0 -80583-3 0  9995
2 55678  70.0007 109.3186 0001959 258.4598 101.6341 14.98402310 44231
DRUMS TARGET-1          
1 55685U 21102M   23330.09057820  .00075309  00000+0  39086-2 0  9998
2 55685  97.4629  20.2912 0015661 217.6691 142.3446 15.15705887 42361
CHINASAT 26 (ZX 26)     
1 55686U 23023A   23329.33729764 -.00000345  00000+0  00000+0 0  9991
2 55686   0.0637  85.6926 0000334 103.4132 121.5014  1.00269120  2858
HORUS 1                 
1 55690U 23025A   23330.11087948  .00021821  00000+0  91725-3 0  9996
2 55690  97.4483  42.3600 0004692  54.1773 305.9899 15.23424346 41849
STARLINK-30050          
1 55695U 23026A   23329.72905667  .00001754  00000+0  16799-4 0  9996
2 55695  43.0019  91.8581 0001686 289.4671  70.6015 15.71386448 43776
STARLINK-30040          
1 55697U 23026C   23329.65666454  .00018925  00000+0  14728-3 0  9995
2 55697  43.0049  79.5061 0002051 293.9575  66.1078 15.71380432 43908
STARLINK-30055          
1 55699U 23026E   23329.72131658  .00055729  00000+0  42242-3 0  9993
2 55699  42.9969  91.7777 0001068 351.3518   8.7332 15.71532749 43772
STARLINK-30064          
1 55700U 23026F   23329.33934859  .00028047  00000+0  21628-3 0  9995
2 55700  42.9982  94.0707 0001115 284.2482  75.8262 15.71390942 43714
STARLINK-30065          
1 55701U 23026G   23329.72798634 -.00019555  00000+0 -14597-3 0  9991
2 55701  42.9994  91.8432 0003036 265.8038  94.2482 15.71357004 43771
STARLINK-30051          
1 55704U 23026K   23329.81322692  .00001348  00000+0  13338-4 0  9993
2 55704  42.9990 124.1318 0001570 298.5741  61.4969 15.72089036 43413
STARLINK-30057          
1 55705U 23026L   23329.72739419  .00010098  00000+0  80273-4 0  9997
2 55705  42.9989  91.8336 0000936 278.1632  81.9129 15.71379403 43773
STARLINK-30060          
1 55707U 23026N   23329.72767527  .00074496  00000+0  56449-3 0  9999
2 55707  42.9985  91.8411 0002696 280.0592  79.9971 15.71435736 43771
STARLINK-30047          
1 55709U 23026Q   23329.72709512  .00001217  00000+0  12727-4 0  9994
2 55709  42.9997  91.8244 0001324 273.4934  86.5783 15.71352004 43774
STARLINK-30046          
1 55710U 23026R   23329.75152182  .00034843  00000+0  26764-3 0  9990
2 55710  42.9998  92.0203 0001810 300.0304  60.0384 15.71390394 43771
STARLINK-30037          
1 55712U 23026T   23330.25001157  .00363806  00000+0  22320-2 0  9991
2 55712  42.9974  87.2320 0003495 347.8529 311.4824 15.75432345 43704
STARLINK-30063          
1 55713U 23026U   23329.72648999  .00000677  00000+0  86102-5 0  9998
2 55713  42.9998  90.9367 0001546 239.8038 120.2676 15.71348877 43784
STARLINK-5592           
1 55741U 23028A   23330.03225161  .00003221  00000+0  27753-3 0  9992
2 55741  69.9990 189.0407 0002591 262.7442  97.3423 14.98339848 41009
STARLINK-5594           
1 55742U 23028B   23330.03643915  .00001195  00000+0  10792-3 0  9997
2 55742  69.9986 189.0552 0002588 270.2667  89.8195 14.98322248 41014
STARLINK-5602           
1 55743U 23028C   23330.04059511  .00004809  00000+0  41040-3 0  9997
2 55743  69.9987 189.0722 0002513 265.8996  94.1876 14.98343322 41019
STARLINK-5601           
1 55744U 23028D   23330.03659385  .00005344  00000+0  45513-3 0  9996
2 55744  70.0003 189.0561 0002227 263.4454  96.6452 14.98345683 41017
STARLINK-5565           
1 55745U 23028E   23330.04477319  .00003263  00000+0  28109-3 0  9993
2 55745  69.9993 189.0857 0002446 266.7305  93.3575 14.98335922 41010
STARLINK-5579           
1 55746U 23028F   23329.94044875  .00001402  00000+0  12524-3 0  9995
2 55746  69.9991 189.1215 0002284 250.5554 109.5358 14.98333964 41007
STARLINK-5539           
1 55747U 23028G   23329.89038803  .00001648  00000+0  14584-3 0  9994
2 55747  69.9991 189.3484 0002355 256.7103 103.3793 14.98333112 40992
STARLINK-5580           
1 55748U 23028H   23329.88621213  .00003434  00000+0  29538-3 0  9997
2 55748  69.9993 189.3333 0002176 257.1417 102.9499 14.98334889 40992
STARLINK-5560           
1 55749U 23028J   23330.06995535  .00008455  00000+0  71512-3 0  9998
2 55749  70.0004 188.7707 0002184 281.3078  78.7836 14.98355339 41021
STARLINK-5573           
1 55750U 23028K   23330.01555289  .00002773  00000+0  24009-3 0  9999
2 55750  69.9991 188.9823 0002435 263.6152  96.4729 14.98337608 41017
STARLINK-5577           
1 55751U 23028L   23330.02808714  .00004626  00000+0  39528-3 0  9996
2 55751  69.9989 189.0258 0002507 268.8501  91.2371 14.98329570 41019
STARLINK-5613           
1 55752U 23028M   23329.92375044  .00001556  00000+0  13811-3 0  9995
2 55752  69.9992 189.0624 0002308 258.3170 101.7731 14.98336323 41006
STARLINK-5617           
1 55753U 23028N   23329.87786430  .00001791  00000+0  15787-3 0  9990
2 55753  69.9990 189.3048 0002451 261.2015  98.8867 14.98334981 40999
STARLINK-5612           
1 55754U 23028P   23329.86534165  .00001716  00000+0  15161-3 0  9999
2 55754  69.9991 189.2598 0002489 265.6907  94.3968 14.98330550 40990
STARLINK-5619           
1 55755U 23028Q   23329.91974197  .00001905  00000+0  16735-3 0  9997
2 55755  69.9989 189.0411 0002458 255.0854 105.0033 14.98337430 41000
STARLINK-5614           
1 55756U 23028R   23330.04891587  .00003134  00000+0  27023-3 0  9993
2 55756  69.9990 188.6960 0002678 274.0846  86.0006 14.98341684 41029
STARLINK-5544           
1 55757U 23028S   23330.06978605  .00003830  00000+0  32852-3 0  9992
2 55757  70.0004 188.7705 0001479 249.4630 110.6370 14.98338863 41025
STARLINK-5072           
1 55758U 23028T   23329.92792342  .00001872  00000+0  16460-3 0  9999
2 55758  69.9992 189.0774 0002397 250.9547 109.1352 14.98335980 41001
STARLINK-5081           
1 55759U 23028U   23330.01550036  .00002010  00000+0  17618-3 0  9995
2 55759  69.9986 169.1455 0002522 271.0733  89.0137 14.98335542 41507
STARLINK-5532           
1 55760U 23028V   23330.04908360  .00002223  00000+0  19401-3 0  9995
2 55760  69.9988 188.6972 0002583 262.6705  97.4160 14.98340028 41013
STARLINK-5611           
1 55761U 23028W   23329.89032781  .00001939  00000+0  17023-3 0  9993
2 55761  69.9985 169.4681 0002667 263.2748  96.8107 14.98331990 41485
STARLINK-5603           
1 55762U 23028X   23329.87764027  .00000629  00000+0  60474-4 0  9991
2 55762  69.9992 169.4246 0002453 262.7517  97.3363 14.98332916 41481
STARLINK-5593           
1 55763U 23028Y   23330.05308860  .00002902  00000+0  25082-3 0  9994
2 55763  69.9991 188.7115 0002699 271.3295  88.7555 14.98338950 41022
STARLINK-5499           
1 55764U 23028Z   23330.01533510  .00000800  00000+0  74799-4 0  9998
2 55764  69.9990 169.1025 0002675 268.9577  91.1275 14.98333947 41505
STARLINK-5595           
1 55765U 23028AA  23329.88598970  .00000513  00000+0  50817-4 0  9999
2 55765  69.9990 169.4527 0002621 256.8822 103.2045 14.98332187 41488
STARLINK-5599           
1 55766U 23028AB  23329.92770394  .00002190  00000+0  19123-3 0  9994
2 55766  69.9986 169.1965 0002602 269.8834  90.2027 14.98333740 41495
STARLINK-5606           
1 55767U 23028AC  23329.89016408  .00000380  00000+0  39636-4 0  9991
2 55767  69.9987 169.4669 0002498 259.3910 100.6968 14.98331766 41488
STARLINK-5583           
1 55768U 23028AD  23329.94022793  .00001907  00000+0  16761-3 0  9991
2 55768  69.9996 169.2420 0002283 267.1468  92.9430 14.98329442 41495
STARLINK-5584           
1 55769U 23028AE  23330.00283280  .00000813  00000+0  75952-4 0  9994
2 55769  69.9994 169.0594 0002536 280.7423  79.3451 14.98320599 41493
STARLINK-5557           
1 55770U 23028AF  23329.99863487  .00002086  00000+0  18250-3 0  9996
2 55770  69.9988 169.0439 0002156 260.9535  99.1380 14.98336424 41493
STARLINK-5591           
1 55771U 23028AG  23329.92352316  .00001962  00000+0  17214-3 0  9995
2 55771  69.9985 169.1808 0002851 271.9217  88.1616 14.98337611 41492
STARLINK-5835           
1 55772U 23028AH  23329.97776117  .00002527  00000+0  21945-3 0  9994
2 55772  69.9982 168.9674 0002692 270.1177  89.9673 14.98338161 41502
STARLINK-5833           
1 55773U 23028AJ  23329.92369456 -.00000077  00000+0  12897-5 0  9991
2 55773  69.9989 169.1830 0002087 265.6175  94.4746 14.98341715 41491
STARLINK-5812           
1 55774U 23028AK  23329.91934873 -.00001051  00000+0 -80270-4 0  9995
2 55774  69.9986 169.1675 0003013 268.3726  91.7088 14.98325440 41494
STARLINK-5809           
1 55775U 23028AL  23329.91518100  .00001607  00000+0  14244-3 0  9999
2 55775  69.9986 169.1510 0002584 267.5154  92.5710 14.98332330 41498
STARLINK-5810           
1 55776U 23028AM  23329.89430698  .00002100  00000+0  18370-3 0  9995
2 55776  69.9983 169.0774 0002771 264.3889  95.6954 14.98335042 41492
STARLINK-5814           
1 55777U 23028AN  23329.97358834  .00002076  00000+0  18174-3 0  9990
2 55777  69.9985 168.9542 0002817 267.1970  92.8867 14.98336118 41508
STARLINK-5816           
1 55778U 23028AP  23329.96943644 -.00000937  00000+0 -70783-4 0  9990
2 55778  69.9981 168.9379 0002958 269.5194  90.5626 14.98326964 41509
STARLINK-5817           
1 55779U 23028AQ  23329.93996987  .00001433  00000+0  12788-3 0  9996
2 55779  69.9985 148.9616 0002682 269.8745  90.2106 14.98335982 41998
STARLINK-5819           
1 55780U 23028AR  23329.89848500  .00001440  00000+0  12843-3 0  9990
2 55780  69.9984 169.0916 0002657 264.8411  95.2445 14.98332289 41496
STARLINK-5820           
1 55781U 23028AS  23329.88615600  .00000817  00000+0  76228-4 0  9998
2 55781  69.9988 169.4799 0002736 261.3897  98.6952 14.98333038 41484
